{
  "type": "FeatureCollection",
  "features": [
    {
      "type": "Feature",
      "properties": {
        "norad_id": 44333,
        "name": "AT&T T-16",
        "group": "intelsat",
        "lat": -0.0025746550013411858,
        "lon": -147.49594595935903,
        "alt_km": 35785.38147997474,
        "timestamp": "2025-12-08T15:42:49.446545+00:00",
        "meta_object_name": "AT&T T-16",
        "meta_object_id": "2019-034A",
        "meta_epoch": "2025-12-08T06:00:20.102688",
        "meta_mean_motion": 1.00269203,
        "meta_eccentricity": 5.34e-05,
        "meta_inclination": 0.0242,
        "meta_ra_of_asc_node": 60.8928,
        "meta_arg_of_pericenter": 101.4278,
        "meta_mean_anomaly": 264.1661,
        "meta_ephemeris_type": 0,
        "meta_classification_type": "U",
        "meta_norad_cat_id": 44333,
        "meta_element_set_no": 999,
        "meta_rev_at_epoch": 2371,
        "meta_bstar": 0,
        "meta_mean_motion_dot": -1.12e-06,
        "meta_mean_motion_ddot": 0,
        "tle_line1": "1 44333U 19034A   25342.25023267 -.00000112  00000+0  00000+0 0  9990",
        "tle_line2": "2 44333   0.0242  60.8928 0000534 101.4278 264.1661  1.00269203 23717"
      },
      "geometry": {
        "type": "Point",
        "coordinates": [
          -147.49594595935903,
          -0.0025746550013411858
        ]
      }
    },
    {
      "type": "Feature",
      "properties": {
        "norad_id": 44476,
        "name": "INTELSAT 39 (IS-39)",
        "group": "intelsat",
        "lat": 0.02652670242924388,
        "lon": 15.298870581791098,
        "alt_km": 35789.16963309038,
        "timestamp": "2025-12-08T15:42:49.446557+00:00",
        "meta_object_name": "INTELSAT 39 (IS-39)",
        "meta_object_id": "2019-049B",
        "meta_epoch": "2025-12-08T05:20:15.073152",
        "meta_mean_motion": 1.00270225,
        "meta_eccentricity": 8.498e-05,
        "meta_inclination": 0.0172,
        "meta_ra_of_asc_node": 325.2678,
        "meta_arg_of_pericenter": 188.8959,
        "meta_mean_anomaly": 65.0792,
        "meta_ephemeris_type": 0,
        "meta_classification_type": "U",
        "meta_norad_cat_id": 44476,
        "meta_element_set_no": 999,
        "meta_rev_at_epoch": 2321,
        "meta_bstar": 0,
        "meta_mean_motion_dot": 3.6e-07,
        "meta_mean_motion_ddot": 0,
        "tle_line1": "1 44476U 19049B   25342.22239668  .00000036  00000+0  00000+0 0  9999",
        "tle_line2": "2 44476   0.0172 325.2678 0000849 188.8959  65.0792  1.00270225 23215"
      },
      "geometry": {
        "type": "Point",
        "coordinates": [
          15.298870581791098,
          0.02652670242924388
        ]
      }
    },
    {
      "type": "Feature",
      "properties": {
        "norad_id": 46114,
        "name": "GALAXY 30 (G-30)",
        "group": "intelsat",
        "lat": -0.013565190067762566,
        "lon": -171.67128354980622,
        "alt_km": 35782.3737573764,
        "timestamp": "2025-12-08T15:42:49.446569+00:00",
        "meta_object_name": "GALAXY 30 (G-30)",
        "meta_object_id": "2020-056C",
        "meta_epoch": "2025-12-08T05:46:43.301280",
        "meta_mean_motion": 1.00270993,
        "meta_eccentricity": 0.0002437,
        "meta_inclination": 0.017,
        "meta_ra_of_asc_node": 351.6835,
        "meta_arg_of_pericenter": 264.3869,
        "meta_mean_anomaly": 142.8564,
        "meta_ephemeris_type": 0,
        "meta_classification_type": "U",
        "meta_norad_cat_id": 46114,
        "meta_element_set_no": 999,
        "meta_rev_at_epoch": 1937,
        "meta_bstar": 0,
        "meta_mean_motion_dot": 3.9e-07,
        "meta_mean_motion_ddot": 0,
        "tle_line1": "1 46114U 20056C   25342.24077895  .00000039  00000+0  00000+0 0  9997",
        "tle_line2": "2 46114   0.0170 351.6835 0002437 264.3869 142.8564  1.00270993 19372"
      },
      "geometry": {
        "type": "Point",
        "coordinates": [
          -171.67128354980622,
          -0.013565190067762566
        ]
      }
    },
    {
      "type": "Feature",
      "properties": {
        "norad_id": 54026,
        "name": "GALAXY 33 (G-33)",
        "group": "intelsat",
        "lat": -0.022651775449680105,
        "lon": -179.6642017717165,
        "alt_km": 35782.69418522631,
        "timestamp": "2025-12-08T15:42:49.446581+00:00",
        "meta_object_name": "GALAXY 33 (G-33)",
        "meta_object_id": "2022-128A",
        "meta_epoch": "2025-12-08T05:42:50.193216",
        "meta_mean_motion": 1.00271663,
        "meta_eccentricity": 0.00022726,
        "meta_inclination": 0.0169,
        "meta_ra_of_asc_node": 300.5528,
        "meta_arg_of_pericenter": 309.077,
        "meta_mean_anomaly": 140.3276,
        "meta_ephemeris_type": 0,
        "meta_classification_type": "U",
        "meta_norad_cat_id": 54026,
        "meta_element_set_no": 999,
        "meta_rev_at_epoch": 1182,
        "meta_bstar": 0,
        "meta_mean_motion_dot": 8.2e-07,
        "meta_mean_motion_ddot": 0,
        "tle_line1": "1 54026U 22128A   25342.23808094  .00000082  00000+0  00000+0 0  9990",
        "tle_line2": "2 54026   0.0169 300.5528 0002272 309.0770 140.3276  1.00271663 11828"
      },
      "geometry": {
        "type": "Point",
        "coordinates": [
          -179.6642017717165,
          -0.022651775449680105
        ]
      }
    },
    {
      "type": "Feature",
      "properties": {
        "norad_id": 54027,
        "name": "GALAXY 34 (G-34)",
        "group": "intelsat",
        "lat": -0.02998315491702723,
        "lon": -175.59011685489685,
        "alt_km": 35783.81010855659,
        "timestamp": "2025-12-08T15:42:49.446593+00:00",
        "meta_object_name": "GALAXY 34 (G-34)",
        "meta_object_id": "2022-128B",
        "meta_epoch": "2025-12-08T05:44:47.318784",
        "meta_mean_motion": 1.00270169,
        "meta_eccentricity": 0.00013611,
        "meta_inclination": 0.0273,
        "meta_ra_of_asc_node": 316.9402,
        "meta_arg_of_pericenter": 289.4406,
        "meta_mean_anomaly": 148.1317,
        "meta_ephemeris_type": 0,
        "meta_classification_type": "U",
        "meta_norad_cat_id": 54027,
        "meta_element_set_no": 999,
        "meta_rev_at_epoch": 1199,
        "meta_bstar": 0,
        "meta_mean_motion_dot": 0,
        "meta_mean_motion_ddot": 0,
        "tle_line1": "1 54027U 22128B   25342.23943656  .00000000  00000+0  00000+0 0  9995",
        "tle_line2": "2 54027   0.0273 316.9402 0001361 289.4406 148.1317  1.00270169 11992"
      },
      "geometry": {
        "type": "Point",
        "coordinates": [
          -175.59011685489685,
          -0.02998315491702723
        ]
      }
    },
    {
      "type": "Feature",
      "properties": {
        "norad_id": 54243,
        "name": "GALAXY 31 (G-31)",
        "group": "intelsat",
        "lat": -0.022840629138229058,
        "lon": -167.65509448301594,
        "alt_km": 35783.046664951245,
        "timestamp": "2025-12-08T15:42:49.446605+00:00",
        "meta_object_name": "GALAXY 31 (G-31)",
        "meta_object_id": "2022-153A",
        "meta_epoch": "2025-12-08T05:49:39.710208",
        "meta_mean_motion": 1.00273838,
        "meta_eccentricity": 0.00019373,
        "meta_inclination": 0.0222,
        "meta_ra_of_asc_node": 258.0312,
        "meta_arg_of_pericenter": 7.0498,
        "meta_mean_anomaly": 138.5901,
        "meta_ephemeris_type": 0,
        "meta_classification_type": "U",
        "meta_norad_cat_id": 54243,
        "meta_element_set_no": 999,
        "meta_rev_at_epoch": 521,
        "meta_bstar": 0,
        "meta_mean_motion_dot": 1.5e-07,
        "meta_mean_motion_ddot": 0,
        "tle_line1": "1 54243U 22153A   25342.24282072  .00000015  00000+0  00000+0 0  9998",
        "tle_line2": "2 54243   0.0222 258.0312 0001937   7.0498 138.5901  1.00273838  5212"
      },
      "geometry": {
        "type": "Point",
        "coordinates": [
          -167.65509448301594,
          -0.022840629138229058
        ]
      }
    },
    {
      "type": "Feature",
      "properties": {
        "norad_id": 54244,
        "name": "GALAXY 32 (G-32)",
        "group": "intelsat",
        "lat": -0.02790238012100467,
        "lon": -137.6728106429862,
        "alt_km": 35785.39885285857,
        "timestamp": "2025-12-08T15:42:49.446616+00:00",
        "meta_object_name": "GALAXY 32 (G-32)",
        "meta_object_id": "2022-153B",
        "meta_epoch": "2025-12-08T06:05:59.661600",
        "meta_mean_motion": 1.00270611,
        "meta_eccentricity": 0.00027185,
        "meta_inclination": 0.0093,
        "meta_ra_of_asc_node": 337.982,
        "meta_arg_of_pericenter": 329.4117,
        "meta_mean_anomaly": 130.3686,
        "meta_ephemeris_type": 0,
        "meta_classification_type": "U",
        "meta_norad_cat_id": 54244,
        "meta_element_set_no": 999,
        "meta_rev_at_epoch": 1122,
        "meta_bstar": 0,
        "meta_mean_motion_dot": -1.72e-06,
        "meta_mean_motion_ddot": 0,
        "tle_line1": "1 54244U 22153B   25342.25416275 -.00000172  00000+0  00000+0 0  9999",
        "tle_line2": "2 54244   0.0093 337.9820 0002718 329.4117 130.3686  1.00270611 11221"
      },
      "geometry": {
        "type": "Point",
        "coordinates": [
          -137.6728106429862,
          -0.02790238012100467
        ]
      }
    }
  ]
}